OSCAR 7 (AO-7)          
1 07530U 74089B   25099.61200016 -.00000017  00000+0  18365-3 0  9998
2 07530 101.9951 103.2237 0011904 237.5556 237.5450 12.53688131306181
PHASE 3B (AO-10)        
1 14129U 83058B   25099.17688259 -.00000166  00000+0  00000+0 0  9994
2 14129  26.9323 292.3460 6051572 355.7267   0.8513  2.05872220286552
UOSAT 2 (UO-11)         
1 14781U 84021B   25099.45999663  .00003976  00000+0  42684-3 0  9993
2 14781  97.7484  67.0695 0008047 165.9669 194.1773 14.89120979192549
LUSAT (LO-19)           
1 20442U 90005G   25099.47093788  .00000440  00000+0  17441-3 0  9994
2 20442  98.9002 103.9161 0012349  42.1324 318.0807 14.33919326840233
EYESAT A (AO-27)        
1 22825U 93061C   25099.51732971  .00000288  00000+0  12714-3 0  9993
2 22825  98.7426 160.7522 0007322 294.6178  65.4242 14.30770815644981
ITAMSAT (IO-26)         
1 22826U 93061D   25099.41387221  .00000339  00000+0  14567-3 0  9992
2 22826  98.7374 160.5269 0007755 276.9651  83.0649 14.31180834645265
RADIO ROSTO (RS-15)     
1 23439U 94085A   25099.60314192 -.00000025  00000+0  48140-3 0  9995
2 23439  64.8150 284.4159 0145820  86.2524 275.5059 11.27581418247012
JAS-2 (FO-29)           
1 24278U 96046B   25099.60813033  .00000036  00000+0  69695-4 0  9994
2 24278  98.5822   1.5112 0350581 140.4316 222.2985 13.53243037414527
TECHSAT 1B (GO-32)      
1 25397U 98043D   25099.50492066  .00000267  00000+0  13571-3 0  9991
2 25397  98.9660  77.3651 0002066  54.4559 305.6812 14.24291978389597
ISS (ZARYA)             
1 25544U 98067A   25099.52007919  .00019023  00000+0  34773-3 0  9999
2 25544  51.6361 287.1280 0004990  24.5294 335.5932 15.49391952504513
PCSAT (NO-44)           
1 26931U 01043C   25099.59072936  .00000496  00000+0  21697-3 0  9991
2 26931  67.0498 285.5242 0005572 269.7883  90.2580 14.31689603228374
SAUDISAT 1C (SO-50)     
1 27607U 02058C   25099.26144491  .00004162  00000+0  53822-3 0  9998
2 27607  64.5559  29.7798 0049083 348.7007  11.2991 14.81375581200146
CUTE-1 (CO-55)          
1 27844U 03031E   25099.54832734  .00000835  00000+0  38295-3 0  9998
2 27844  98.6786 108.6050 0009803  12.4210 347.7209 14.23928358129987
CUBESAT XI-IV (CO-57)   
1 27848U 03031J   25099.46839966  .00000725  00000+0  33960-3 0  9999
2 27848  98.6814 108.5776 0010050  28.9909 331.1826 14.23272552129676
MOZHAYETS 4 (RS-22)     
1 27939U 03042A   25099.64590556  .00002919  00000+0  47167-3 0  9992
2 27939  98.3223 267.6495 0011267 197.5516 258.7270 14.72123160151734
CUBESAT XI-V            
1 28895U 05043F   25099.63430821  .00004609  00000+0  76328-3 0  9993
2 28895  98.2391 243.2661 0015630 138.1715 222.0689 14.70696730 37980
CUTE-1.7+APD II (CO-65) 
1 32785U 08021C   25099.46598726  .00013238  00000+0  97224-3 0  9991
2 32785  97.7791  70.2299 0011536  63.0774 297.1628 15.03528126919893
SEEDS II (CO-66)        
1 32791U 08021J   25099.46035105  .00026525  00000+0  13536-2 0  9991
2 32791  97.7246  78.2340 0005704  49.7610 310.4120 15.16686044921224
YUBILEINY (RS-30)       
1 32953U 08025A   25099.55972637  .00000064  00000+0  38746-3 0  9996
2 32953  82.4983 265.1304 0019689 176.4431 183.6792 12.43162033765816
KKS-1 (KISEKI)          
1 33499U 09002H   25099.53514737  .00003375  00000+0  43892-3 0  9995
2 33499  98.1231  10.7755 0006637 252.1474 107.9014 14.81345782871951
SWISSCUBE               
1 35932U 09051B   25099.41385469  .00002772  00000+0  57330-3 0  9990
2 35932  98.4370 354.4917 0008092 115.7642 244.4394 14.61120886825780
BEESAT-1                
1 35933U 09051C   25099.43276451  .00002333  00000+0  49008-3 0  9999
2 35933  98.4302 354.9725 0006352 125.4545 234.7248 14.60567840825846
ITUPSAT1                
1 35935U 09051E   25099.60525745  .00002067  00000+0  44657-3 0  9992
2 35935  98.4397 354.7385 0008430 134.9824 225.2060 14.59380102825474
XIWANG-1 (HOPE-1)       
1 36122U 09072B   25099.59017644  .00000000  00000+0  11601-3 0  9994
2 36122 100.3430  56.6702 0007840 140.8036 219.3646 13.16422560735954
O/OREOS (USA 219)       
1 37224U 10062C   25099.38781174  .00005228  00000+0  53277-3 0  9994
2 37224  71.9735 340.9441 0015447 180.8547 179.2598 14.91025295 51927
JUGNU                   
1 37839U 11058B   25099.57403703  .00000743  00000+0  24881-3 0  9998
2 37839  19.9614  62.3598 0018488 328.5642 188.3559 14.13568431697708
SRMSAT                  
1 37841U 11058D   25099.45298741  .00000615  00000+0  19062-3 0  9995
2 37841  19.9705 164.4467 0011899 111.9845 358.6611 14.11407042696460
STRAND-1                
1 39090U 13009E   25099.46200719  .00000876  00000+0  31112-3 0  9999
2 39090  98.3827 285.7622 0009944  88.3954 271.8372 14.36750710634776
ZACUBE-1 (TSHEPISOSAT)  
1 39417U 13066B   25099.59873399  .00010095  00000+0  89085-3 0  9995
2 39417  97.7735  56.9889 0042986 255.3971 104.2481 14.95877717615794
GOMX-1                  
1 39430U 13066Q   25099.59784950  .00004279  00000+0  66999-3 0  9990
2 39430  97.6923 321.9884 0133936  28.1958 332.6415 14.67321746606287
CUBEBUG-2 (LO-74)       
1 39440U 13066AA  25099.35090235  .00011207  00000+0  11456-2 0  9997
2 39440  97.8445  44.3791 0063912  23.7684 336.6462 14.89203147612321
FUNCUBE-1 (AO-73)       
1 39444U 13066AE  25099.38265452  .00015884  00000+0  12224-2 0  9998
2 39444  97.7672  61.1481 0039811 232.0385 127.7240 15.01125852614408
UWE-3                   
1 39446U 13066AG  25099.59947525  .00011477  00000+0  11012-2 0  9999
2 39446  97.8177  50.9084 0052704 323.2919  36.4694 14.92203606612813
UNISAT-6                
1 40012U 14033C   25099.43267974  .00007632  00000+0  88787-3 0  9993
2 40012  97.7337 257.3735 0048973  56.9197 303.6706 14.84705272581723
DUCHIFAT-1              
1 40021U 14033M   25099.58747510  .00037214  00000+0  14755-2 0  9990
2 40021  98.0999 108.7585 0010699 154.8377 205.3382 15.25239232589017
QB50P1                  
1 40025U 14033R   25099.57491950  .00015595  00000+0  98290-3 0  9992
2 40025  98.0789  78.8432 0008376 259.6652 100.3631 15.09212643587439
LILACSAT-2              
1 40908U 15049K   25099.58675421  .00021890  00000+0  60290-3 0  9992
2 40908  97.5117 118.5165 0010173  32.1618 328.0245 15.37114221528852
FOX-1A (AO-85)          
1 40967U 15058D   25099.56653544  .00009952  00000+0  85260-3 0  9996
2 40967  64.7767 183.1407 0169441 214.8802 144.1114 14.87503456 48998
CAS-2T & KS-1Q          
1 41847U 16066G   25099.47126173  .00002149  00000+0  31433-3 0  9991
2 41847  98.4229 174.4598 0346797   3.5649 356.7893 14.43302910442201
ZHUHAI-1 02 (CAS-4B)    
1 42759U 17034B   25099.61893688  .00075042  00000+0  10788-2 0  9999
2 42759  43.0100 323.0802 0019181 229.3196 130.5999 15.54941568433089
ZHUHAI-1 01 (CAS-4A)    
1 42761U 17034D   25099.30686530  .00092526  00000+0  12901-2 0  9999
2 42761  43.0133 322.6028 0020587 231.4125 128.4893 15.55652498433048
RADFXSAT (FOX-1B)       
1 43017U 17073E   25099.59181786  .00018549  00000+0  96733-3 0  9990
2 43017  97.5350 331.9222 0176696  14.6504 345.9749 15.03425342400041
DIWATA-2B               
1 43678U 18084H   25099.61011188  .00005308  00000+0  45535-3 0  9990
2 43678  98.0984 273.4327 0009288 129.1139 231.0909 14.97923076351257
ES'HAIL 2               
1 43700U 18090A   25099.57267168  .00000135  00000+0  00000+0 0  9996
2 43700   0.0206 189.0090 0001779 226.1738  14.8332  1.00270770 23329
FOX-1CLIFF (AO-95)      
1 43770U 18099N   25099.42060563  .00019467  00000+0  10201-2 0  9991
2 43770  97.4992 158.2203 0012231  70.9133 289.3423 15.15764375347285
ITASAT                  
1 43786U 18099AE  25099.41583836  .00014162  00000+0  82761-3 0  9998
2 43786  97.4644 155.1355 0015904  62.5702 297.7144 15.11892480347210
JY1SAT (JO-97)          
1 43803U 18099AX  25099.42868772  .00023735  00000+0  11338-2 0  9991
2 43803  97.4738 159.1046 0007105  10.9514 349.1874 15.19008854347480
UWE-4                   
1 43880U 18111E   25098.19955163  .00026393  00000+0  11047-2 0  9995
2 43880  97.5935  10.2210 0015128  72.9769 287.3124 15.23436522344120
DUCHIFAT-3              
1 44854U 19089C   25099.11843247  .00068102  00000+0  16298-2 0  9991
2 44854  36.9467  24.3381 0002343 329.7920  30.2699 15.40366489293512
TIANYAN 01              
1 44881U 19093C   25099.53409191  .00002164  00000+0  25684-3 0  9994
2 44881  97.7949 176.4600 0015226  74.4244 285.8651 14.85421999287012
RS-44 & BREEZE-KM R/B   
1 44909U 19096E   25099.57403049  .00000027  00000+0  54336-4 0  9991
2 44909  82.5169 267.8150 0218436  78.3240 284.2284 12.79740051246880
SALSAT                  
1 46495U 20068K   25099.48325432  .00016031  00000+0  71257-3 0  9995
2 46495  97.8559  74.7549 0012470  24.6015 335.5812 15.21539436249237
LEDSAT                  
1 49069U 21073D   25099.49222119  .00090343  00000+0  14820-2 0  9991
2 49069  97.3940 178.8548 0010616 292.9110  67.1021 15.52064945201934
XW-3 (CAS-9)            
1 50466U 21131B   25099.57768475  .00001342  00000+0  43382-3 0  9995
2 50466  98.5083 189.2409 0003288 332.7798  27.3217 14.40707072172665
STRATOSAT-TK 1 (RS52S)  
1 57167U 23091B   25099.60801295  .00060345  00000+0  17752-2 0  9998
2 57167  97.5605 161.3252 0011229 164.6071 195.5515 15.34808458 98644
UMKA 1 (RS40S)          
1 57172U 23091G   25099.57622867  .00012516  00000+0  68284-3 0  9990
2 57172  97.5652 155.2919 0015100 179.7038 180.4205 15.14401558 98249
CUBESX-HSE 3 (RS42S)    
1 57178U 23091N   25099.56499567  .00020140  00000+0  95673-3 0  9998
2 57178  97.5683 157.1389 0014917 170.0918 190.0613 15.19161274 98341
MONITOR-3 (RS58S)       
1 57180U 23091Q   25099.52894347  .00016857  00000+0  83605-3 0  9994
2 57180  97.5678 156.5205 0015393 171.7944 188.3544 15.17691622 98306
MONITOR-4 (RS57S)       
1 57182U 23091S   25099.59309927  .00017051  00000+0  84460-3 0  9995
2 57182  97.5672 156.5428 0015417 172.2383 187.9092 15.17734825 98316
